[{"OBJECT_NAME":"CUBESX-HSE 3 (RS42S)","OBJECT_ID":"2023-091N","EPOCH":"2026-03-09T22:57:25.321248","MEAN_MOTION":15.286147,"ECCENTRICITY":0.00127191,"INCLINATION":97.5203,"RA_OF_ASC_NODE":133.4295,"ARG_OF_PERICENTER":86.5376,"MEAN_ANOMALY":273.7318,"EPHEMERIS_TYPE":0,"CLASSIFICATION_TYPE":"U","NORAD_CAT_ID":57178,"ELEMENT_SET_NO":999,"REV_AT_EPOCH":14925,"BSTAR":0.00059055694,"MEAN_MOTION_DOT":0.00016417,"MEAN_MOTION_DDOT":0},{"OBJECT_NAME":"STARLINK-36094","OBJECT_ID":"2025-281D","EPOCH":"2026-03-09T03:32:26.075328","MEAN_MOTION":15.27569557,"ECCENTRICITY":0.00015493,"INCLINATION":43.0032,"RA_OF_ASC_NODE":346.4497,"ARG_OF_PERICENTER":260.6256,"MEAN_ANOMALY":99.442,"EPHEMERIS_TYPE":0,"CLASSIFICATION_TYPE":"U","NORAD_CAT_ID":66851,"ELEMENT_SET_NO":999,"REV_AT_EPOCH":1610,"BSTAR":0.0014206979,"MEAN_MOTION_DOT":0.00039027,"MEAN_MOTION_DDOT":0}]
